{"type": "FeatureCollection", "features": [ {"type": "Feature", "properties": {"norad_id": 30396, "name": "FENGYUN 1C DEB", "group": "fengyun-1c-debris", "lat": -75.49062316655963, "lon": 23.656038454023285, "alt_km": 1027.7907865553289, "timestamp": "2025-12-10T14:53:37.368234+00:00", "meta": {"OBJECT_NAME": "FENGYUN 1C DEB", "OBJECT_ID": "1999-025ADK", "EPOCH": "2025-12-09T23:50:05.422848", "MEAN_MOTION": 13.87167499, "ECCENTRICITY": 0.01349167, "INCLINATION": 98.224, "RA_OF_ASC_NODE": 349.1291, "ARG_OF_PERICENTER": 137.2722, "MEAN_ANOMALY": 252.2431, "EPHEMERIS_TYPE": 0, "CLASSIFICATION_TYPE": "U", "NORAD_CAT_ID": 30396, "ELEMENT_SET_NO": 999, "REV_AT_EPOCH": 95541, "BSTAR": 0.00015541239, "MEAN_MOTION_DOT": 1.61e-06, "MEAN_MOTION_DDOT": 0}, "tle": {"line1": "1 30396U 99025ADK 25343.99311832  .00000161  00000+0  15541-3 0  9995", "line2": "2 30396  98.2240 349.1291 0134916 137.2722 252.2431 13.87167499955413"}}, "geometry": {"type": "Point", "coordinates": [23.656038454023285, -75.49062316655963]}}, {"type": "Feature", "properties": {"norad_id": 30397, "name": "FENGYUN 1C DEB", "group": "fengyun-1c-debris", "lat": 76.464830590825, "lon": 95.10144981688367, "alt_km": 788.3653752950568, "timestamp": "2025-12-10T14:53:37.368243+00:00", "meta": {"OBJECT_NAME": "FENGYUN 1C DEB", "OBJECT_ID": "1999-025ADL", "EPOCH": "2025-12-09T09:35:23.031168", "MEAN_MOTION": 13.98572113, "ECCENTRICITY": 0.01497434, "INCLINATION": 98.4062, "RA_OF_ASC_NODE": 131.8797, "ARG_OF_PERICENTER": 101.9571, "MEAN_ANOMALY": 313.8286, "EPHEMERIS_TYPE": 0, "CLASSIFICATION_TYPE": "U", "NORAD_CAT_ID": 30397, "ELEMENT_SET_NO": 999, "REV_AT_EPOCH": 95718, "BSTAR": 0.0016727347, "MEAN_MOTION_DOT": 2.603e-05, "MEAN_MOTION_DDOT": 0}, "tle": {"line1": "1 30397U 99025ADL 25343.39957212  .00002603  00000+0  16727-2 0  9997", "line2": "2 30397  98.4062 131.8797 0149743 101.9571 313.8286 13.98572113957182"}}, "geometry": {"type": "Point", "coordinates": [95.10144981688367, 76.464830590825]}}, {"type": "Feature", "properties": {"norad_id": 30398, "name": "FENGYUN 1C DEB", "group": "fengyun-1c-debris", "lat": -70.25066809455339, "lon": -90.41259696895511, "alt_km": 852.4881374716724, "timestamp": "2025-12-10T14:53:37.368252+00:00", "meta": {"OBJECT_NAME": "FENGYUN 1C DEB", "OBJECT_ID": "1999-025ADM", "EPOCH": "2025-12-10T07:09:29.035872", "MEAN_MOTION": 13.78693876, "ECCENTRICITY": 0.01728957, "INCLINATION": 99.7141, "RA_OF_ASC_NODE": 240.7609, "ARG_OF_PERICENTER": 302.427, "MEAN_ANOMALY": 186.445, "EPHEMERIS_TYPE": 0, "CLASSIFICATION_TYPE": "U", "NORAD_CAT_ID": 30398, "ELEMENT_SET_NO": 999, "REV_AT_EPOCH": 94723, "BSTAR": 0.00077123066, "MEAN_MOTION_DOT": 8.27e-06, "MEAN_MOTION_DDOT": 0}, "tle": {"line1": "1 30398U 99025ADM 25344.29825273  .00000827  00000+0  77123-3 0  9993", "line2": "2 30398  99.7141 240.7609 0172895 302.4270 186.4450 13.78693876947235"}}, "geometry": {"type": "Point", "coordinates": [-90.41259696895511, -70.25066809455339]}}, {"type": "Feature", "properties": {"norad_id": 30400, "name": "FENGYUN 1C DEB", "group": "fengyun-1c-debris", "lat": -51.5267553282447, "lon": 80.39210752883801, "alt_km": 917.5708433567706, "timestamp": "2025-12-10T14:53:37.368261+00:00", "meta": {"OBJECT_NAME": "FENGYUN 1C DEB", "OBJECT_ID": "1999-025ADP", "EPOCH": "2025-12-08T07:50:43.519776", "MEAN_MOTION": 14.09839617, "ECCENTRICITY": 0.02278529, "INCLINATION": 99.1568, "RA_OF_ASC_NODE": 269.7675, "ARG_OF_PERICENTER": 348.052, "MEAN_ANOMALY": 131.592, "EPHEMERIS_TYPE": 0, "CLASSIFICATION_TYPE": "U", "NORAD_CAT_ID": 30400, "ELEMENT_SET_NO": 999, "REV_AT_EPOCH": 95452, "BSTAR": 0.0059510634, "MEAN_MOTION_DOT": 0.00013297, "MEAN_MOTION_DDOT": 0}, "tle": {"line1": "1 30400U 99025ADP 25342.32689259  .00013297  00000+0  59511-2 0  9996", "line2": "2 30400  99.1568 269.7675 0227852 348.0520 131.5920 14.09839617954521"}}, "geometry": {"type": "Point", "coordinates": [80.39210752883801, -51.5267553282447]}}, {"type": "Feature", "properties": {"norad_id": 30401, "name": "FENGYUN 1C DEB", "group": "fengyun-1c-debris", "lat": 59.072579421264045, "lon": 56.70317465969976, "alt_km": 717.572133026355, "timestamp": "2025-12-10T14:53:37.368271+00:00", "meta": {"OBJECT_NAME": "FENGYUN 1C DEB", "OBJECT_ID": "1999-025ADQ", "EPOCH": "2025-12-09T21:31:17.722560", "MEAN_MOTION": 14.27987922, "ECCENTRICITY": 0.01077677, "INCLINATION": 98.9474, "RA_OF_ASC_NODE": 220.7165, "ARG_OF_PERICENTER": 135.6769, "MEAN_ANOMALY": 225.3102, "EPHEMERIS_TYPE": 0, "CLASSIFICATION_TYPE": "U", "NORAD_CAT_ID": 30401, "ELEMENT_SET_NO": 999, "REV_AT_EPOCH": 98263, "BSTAR": 0.00020373794, "MEAN_MOTION_DOT": 4.92e-06, "MEAN_MOTION_DDOT": 0}, "tle": {"line1": "1 30401U 99025ADQ 25343.89673290  .00000492  00000+0  20374-3 0  9997", "line2": "2 30401  98.9474 220.7165 0107767 135.6769 225.3102 14.27987922982633"}}, "geometry": {"type": "Point", "coordinates": [56.70317465969976, 59.072579421264045]}}, {"type": "Feature", "properties": {"norad_id": 30403, "name": "FENGYUN 1C DEB", "group": "fengyun-1c-debris", "lat": -20.344323623492443, "lon": 66.38109016787416, "alt_km": 790.3658461956229, "timestamp": "2025-12-10T14:53:37.368280+00:00", "meta": {"OBJECT_NAME": "FENGYUN 1C DEB", "OBJECT_ID": "1999-025ADS", "EPOCH": "2025-12-10T04:51:13.040064", "MEAN_MOTION": 14.21498437, "ECCENTRICITY": 0.00748178, "INCLINATION": 99.0591, "RA_OF_ASC_NODE": 62.5605, "ARG_OF_PERICENTER": 30.4345, "MEAN_ANOMALY": 330.1143, "EPHEMERIS_TYPE": 0, "CLASSIFICATION_TYPE": "U", "NORAD_CAT_ID": 30403, "ELEMENT_SET_NO": 999, "REV_AT_EPOCH": 96770, "BSTAR": 0.0024939822, "MEAN_MOTION_DOT": 5.572e-05, "MEAN_MOTION_DDOT": 0}, "tle": {"line1": "1 30403U 99025ADS 25344.20223426  .00005572  00000+0  24940-2 0  9993", "line2": "2 30403  99.0591  62.5605 0074817  30.4345 330.1143 14.21498437967702"}}, "geometry": {"type": "Point", "coordinates": [66.38109016787416, -20.344323623492443]}}, {"type": "Feature", "properties": {"norad_id": 30404, "name": "FENGYUN 1C DEB", "group": "fengyun-1c-debris", "lat": -12.658045980514302, "lon": 78.70922535055476, "alt_km": 1387.582621263, "timestamp": "2025-12-10T14:53:37.368289+00:00", "meta": {"OBJECT_NAME": "FENGYUN 1C DEB", "OBJECT_ID": "1999-025ADT", "EPOCH": "2025-12-09T17:22:00.970176", "MEAN_MOTION": 13.34340356, "ECCENTRICITY": 0.03762169, "INCLINATION": 99.8341, "RA_OF_ASC_NODE": 75.6132, "ARG_OF_PERICENTER": 143.8851, "MEAN_ANOMALY": 218.8323, "EPHEMERIS_TYPE": 0, "CLASSIFICATION_TYPE": "U", "NORAD_CAT_ID": 30404, "ELEMENT_SET_NO": 999, "REV_AT_EPOCH": 57996, "BSTAR": 0.0018981594, "MEAN_MOTION_DOT": 1.373e-05, "MEAN_MOTION_DDOT": 0}, "tle": {"line1": "1 30404U 99025ADT 25343.72362234  .00001373  00000+0  18982-2 0  9995", "line2": "2 30404  99.8341  75.6132 0376216 143.8851 218.8323 13.34340356579961"}}, "geometry": {"type": "Point", "coordinates": [78.70922535055476, -12.658045980514302]}}, {"type": "Feature", "properties": {"norad_id": 30405, "name": "FENGYUN 1C DEB", "group": "fengyun-1c-debris", "lat": 76.26326140181527, "lon": -62.122724235672194, "alt_km": 769.1624507027809, "timestamp": "2025-12-10T14:53:37.368298+00:00", "meta": {"OBJECT_NAME": "FENGYUN 1C DEB", "OBJECT_ID": "1999-025ADU", "EPOCH": "2025-12-09T23:33:38.040192", "MEAN_MOTION": 14.28877673, "ECCENTRICITY": 0.00515027, "INCLINATION": 98.7938, "RA_OF_ASC_NODE": 77.9439, "ARG_OF_PERICENTER": 161.6348, "MEAN_ANOMALY": 254.916, "EPHEMERIS_TYPE": 0, "CLASSIFICATION_TYPE": "U", "NORAD_CAT_ID": 30405, "ELEMENT_SET_NO": 999, "REV_AT_EPOCH": 97356, "BSTAR": 0.0026153685, "MEAN_MOTION_DOT": 6.656e-05, "MEAN_MOTION_DDOT": 0}, "tle": {"line1": "1 30405U 99025ADU 25343.98169028  .00006656  00000+0  26154-2 0  9999", "line2": "2 30405  98.7938  77.9439 0051502 161.6348 254.9160 14.28877673973569"}}, "geometry": {"type": "Point", "coordinates": [-62.122724235672194, 76.26326140181527]}}, {"type": "Feature", "properties": {"norad_id": 30406, "name": "FENGYUN 1C DEB", "group": "fengyun-1c-debris", "lat": -51.01963222896802, "lon": 44.731712336171064, "alt_km": 1186.8708166204815, "timestamp": "2025-12-10T14:53:37.368307+00:00", "meta": {"OBJECT_NAME": "FENGYUN 1C DEB", "OBJECT_ID": "1999-025ADV", "EPOCH": "2025-12-09T12:07:57.343584", "MEAN_MOTION": 13.59193496, "ECCENTRICITY": 0.02830968, "INCLINATION": 98.62, "RA_OF_ASC_NODE": 234.5532, "ARG_OF_PERICENTER": 8.191, "MEAN_ANOMALY": 172.8241, "EPHEMERIS_TYPE": 0, "CLASSIFICATION_TYPE": "U", "NORAD_CAT_ID": 30406, "ELEMENT_SET_NO": 999, "REV_AT_EPOCH": 93122, "BSTAR": 0.0035302827, "MEAN_MOTION_DOT": 3.347e-05, "MEAN_MOTION_DDOT": 0}, "tle": {"line1": "1 30406U 99025ADV 25343.50552481  .00003347  00000+0  35303-2 0  9997", "line2": "2 30406  98.6200 234.5532 0283096   8.1910 172.8241 13.59193496931223"}}, "geometry": {"type": "Point", "coordinates": [44.731712336171064, -51.01963222896802]}}, {"type": "Feature", "properties": {"norad_id": 30409, "name": "FENGYUN 1C DEB", "group": "fengyun-1c-debris", "lat": -3.8357274145503766, "lon": -27.278906587706715, "alt_km": 766.5980394150774, "timestamp": "2025-12-10T14:53:37.368316+00:00", "meta": {"OBJECT_NAME": "FENGYUN 1C DEB", "OBJECT_ID": "1999-025ADY", "EPOCH": "2025-12-10T04:55:45.280416", "MEAN_MOTION": 14.0371913, "ECCENTRICITY": 0.01678961, "INCLINATION": 98.4735, "RA_OF_ASC_NODE": 331.7612, "ARG_OF_PERICENTER": 12.6974, "MEAN_ANOMALY": 47.118, "EPHEMERIS_TYPE": 0, "CLASSIFICATION_TYPE": "U", "NORAD_CAT_ID": 30409, "ELEMENT_SET_NO": 999, "REV_AT_EPOCH": 96394, "BSTAR": 0.0013436435, "MEAN_MOTION_DOT": 2.355e-05, "MEAN_MOTION_DDOT": 0}, "tle": {"line1": "1 30409U 99025ADY 25344.20538519  .00002355  00000+0  13436-2 0  9995", "line2": "2 30409  98.4735 331.7612 0167896  12.6974  47.1180 14.03719130963944"}}, "geometry": {"type": "Point", "coordinates": [-27.278906587706715, -3.8357274145503766]}}]}